OBJECT_NAME,OBJECT_ID,EPOCH,MEAN_MOTION,ECCENTRICITY,INCLINATION,RA_OF_ASC_NODE,ARG_OF_PERICENTER,MEAN_ANOMALY,EPHEMERIS_TYPE,CLASSIFICATION_TYPE,NORAD_CAT_ID,ELEMENT_SET_NO,REV_AT_EPOCH,BSTAR,MEAN_MOTION_DOT,MEAN_MOTION_DDOT
TRITON-1,2013-066M,2026-06-26T22:51:41.017248,14.81734762,.00891103,97.8242,87.5375,201.6225,158.1216,0,U,39427,999,67553,.20852794E-3,.1703E-4,0
GOMX-1,2013-066Q,2026-06-26T22:09:22.149792,14.69492351,.01298479,97.6486,17.7715,46.6410,314.5528,0,U,39430,999,67134,.29941545E-3,.1969E-4,0
CUBEBUG-2 (LO-74),2013-066AA,2026-06-26T20:13:46.093440,14.93837093,.00574429,97.8903,126.8620,357.1295,2.9586,0,U,39440,999,67843,.3894291E-3,.4208E-4,0
NEE-02 KRYSAOR,2013-066AB,2026-06-26T18:24:09.354816,14.86659035,.00671241,97.8892,116.9131,39.4303,321.1770,0,U,39441,999,67762,.29517323E-3,.2672E-4,0
FUNCUBE-1 (AO-73),2013-066AE,2026-06-26T20:48:34.478208,15.09599724,.00366285,97.8271,149.5153,168.0443,192.1663,0,U,39444,999,68112,.48706649E-3,.7885E-4,0
UWE-3,2013-066AG,2026-06-26T20:10:13.067328,14.97101122,.00467941,97.8709,133.9799,288.3987,71.2149,0,U,39446,999,67902,.36186931E-3,.4205E-4,0
SMDC ONE 2.4,2013-072H,2026-06-26T13:16:14.752992,15.18359041,.0146556,120.4939,28.2489,28.9495,331.9615,0,U,39469,999,11925,.40766E-3,.10809E-3,0
COSMOS 2488 (RODNIK-S 7),2013-076A,2026-06-26T22:31:53.094144,12.42906168,.00208851,82.4831,162.6192,75.1921,285.1471,0,U,39483,999,56710,.31380321E-3,.54E-6,0
COSMOS 2489 (RODNIK-S 8),2013-076B,2026-06-26T23:52:23.228256,12.42880067,.00226982,82.4867,163.9664,74.9752,285.3838,0,U,39484,999,56716,.80873502E-3,.122E-5,0
COSMOS 2490 (RODNIK-S 9),2013-076C,2026-06-26T23:11:55.751136,12.42878948,.00228657,82.4814,162.0471,89.8367,270.5333,0,U,39485,999,56709,.74695883E-3,.114E-5,0
KAZEOSAT 1,2014-024A,2026-06-26T22:38:54.255264,14.42083317,.0001232,98.3208,250.1484,74.6073,285.5253,0,U,39731,999,63996,.48293815E-4,.116E-5,0
COSMOS 2496 (RODNIK-S 10),2014-028A,2026-06-26T22:10:44.379264,12.42878848,.00213193,82.4452,102.6330,58.8153,301.5013,0,U,39761,999,54872,.43663334E-4,.16E-6,0
COSMOS 2497 (RODNIK-S 11),2014-028B,2026-06-26T21:34:57.951840,12.42894625,.00218381,82.4500,104.3420,54.0947,306.2155,0,U,39762,999,54872,.11247927E-3,.26E-6,0
COSMOS 2498 (RODNIK-S 12),2014-028C,2026-06-26T22:57:39.128832,12.42980168,.00225661,82.4461,102.7890,53.5495,306.7660,0,U,39763,999,54876,-.39494158E-3,-.45E-6,0
HODOYOSHI-4,2014-033B,2026-06-26T23:39:10.832256,14.88148221,.00220986,97.5452,2.3352,273.8413,86.0278,0,U,40011,999,65026,.16931181E-3,.1513E-4,0
UNISAT-6,2014-033C,2026-06-26T22:47:05.575776,14.88291089,.00456765,97.7883,330.4899,37.8677,322.5737,0,U,40012,999,64761,.28943577E-3,.2671E-4,0
DEIMOS-2,2014-033D,2026-06-26T21:30:47.160288,14.93751423,.00012247,97.5829,52.0444,54.1298,306.0036,0,U,40013,999,63917,.12393615E-3,.1258E-4,0
BUGSAT-1 (TITA),2014-033E,2026-06-26T22:32:37.674816,15.15689035,.00286689,98.0428,271.0586,145.6578,214.6513,0,U,40014,999,65731,.34067334E-3,.6478E-4,0
SAUDISAT 4,2014-033G,2026-06-26T22:12:08.360928,14.79556302,.00457247,97.7593,323.7234,43.1569,317.3212,0,U,40016,999,64751,.85330472E-4,.598E-5,0
APRIZESAT 9,2014-033J,2026-06-26T21:55:35.196384,14.74227829,.0066459,97.9071,310.8750,167.8702,192.4126,0,U,40018,999,64499,.11704862E-3,.748E-5,0
BRITE-CA1 (TORONTO),2014-033L,2026-06-26T21:21:12.011904,14.72690941,.00773454,97.9749,306.6393,245.4033,113.9102,0,U,40020,999,64364,.13451976E-3,.844E-5,0
